[{"OBJECT_NAME":"SL-8 R/B","OBJECT_ID":"1991-006B","EPOCH":"2026-03-26T11:10:42.269664","MEAN_MOTION":13.77496704,"ECCENTRICITY":0.0022002,"INCLINATION":82.945,"RA_OF_ASC_NODE":157.5739,"ARG_OF_PERICENTER":351.9063,"MEAN_ANOMALY":18.4201,"EPHEMERIS_TYPE":0,"CLASSIFICATION_TYPE":"U","NORAD_CAT_ID":21088,"ELEMENT_SET_NO":999,"REV_AT_EPOCH":76638,"BSTAR":6.3145e-5,"MEAN_MOTION_DOT":7.8e-7,"MEAN_MOTION_DDOT":0},{"OBJECT_NAME":"OKEAN-3","OBJECT_ID":"1991-039A","EPOCH":"2026-03-26T08:51:03.412800","MEAN_MOTION":15.04901773,"ECCENTRICITY":0.0012332,"INCLINATION":82.5165,"RA_OF_ASC_NODE":320.6838,"ARG_OF_PERICENTER":274.9268,"MEAN_ANOMALY":85.0551,"EPHEMERIS_TYPE":0,"CLASSIFICATION_TYPE":"U","NORAD_CAT_ID":21397,"ELEMENT_SET_NO":999,"REV_AT_EPOCH":86754,"BSTAR":0.00013841,"MEAN_MOTION_DOT":1.988e-5,"MEAN_MOTION_DDOT":0},{"OBJECT_NAME":"COSMOS 2151","OBJECT_ID":"1991-042A","EPOCH":"2026-03-26T11:48:54.660384","MEAN_MOTION":15.00173394,"ECCENTRICITY":0.0012705,"INCLINATION":82.4944,"RA_OF_ASC_NODE":67.4627,"ARG_OF_PERICENTER":11.0671,"MEAN_ANOMALY":349.083,"EPHEMERIS_TYPE":0,"CLASSIFICATION_TYPE":"U","NORAD_CAT_ID":21422,"ELEMENT_SET_NO":999,"REV_AT_EPOCH":86571,"BSTAR":0.00020084,"MEAN_MOTION_DOT":2.538e-5,"MEAN_MOTION_DDOT":0},{"OBJECT_NAME":"SL-14 R/B","OBJECT_ID":"1991-042B","EPOCH":"2026-03-26T10:28:36.318144","MEAN_MOTION":14.81846022,"ECCENTRICITY":0.0017006,"INCLINATION":82.4953,"RA_OF_ASC_NODE":204.4811,"ARG_OF_PERICENTER":181.1878,"MEAN_ANOMALY":178.9299,"EPHEMERIS_TYPE":0,"CLASSIFICATION_TYPE":"U","NORAD_CAT_ID":21423,"ELEMENT_SET_NO":999,"REV_AT_EPOCH":85555,"BSTAR":5.7668e-5,"MEAN_MOTION_DOT":4.8e-6,"MEAN_MOTION_DDOT":0},{"OBJECT_NAME":"ERS-1","OBJECT_ID":"1991-050A","EPOCH":"2026-03-26T12:27:15.718752","MEAN_MOTION":14.39461613,"ECCENTRICITY":0.0032573,"INCLINATION":98.7869,"RA_OF_ASC_NODE":104.1758,"ARG_OF_PERICENTER":150.696,"MEAN_ANOMALY":209.6062,"EPHEMERIS_TYPE":0,"CLASSIFICATION_TYPE":"U","NORAD_CAT_ID":21574,"ELEMENT_SET_NO":999,"REV_AT_EPOCH":81815,"BSTAR":0.00010977,"MEAN_MOTION_DOT":2.98e-6,"MEAN_MOTION_DDOT":0},{"OBJECT_NAME":"ARIANE 40 R/B","OBJECT_ID":"1991-050F","EPOCH":"2026-03-26T02:43:50.145312","MEAN_MOTION":14.42905128,"ECCENTRICITY":0.00036939,"INCLINATION":98.1979,"RA_OF_ASC_NODE":136.7312,"ARG_OF_PERICENTER":44.4428,"MEAN_ANOMALY":315.7059,"EPHEMERIS_TYPE":0,"CLASSIFICATION_TYPE":"U","NORAD_CAT_ID":21610,"ELEMENT_SET_NO":999,"REV_AT_EPOCH":82136,"BSTAR":0.00010031838,"MEAN_MOTION_DOT":2.94e-6,"MEAN_MOTION_DDOT":0},{"OBJECT_NAME":"INTERCOSMOS 25","OBJECT_ID":"1991-086A","EPOCH":"2026-03-26T07:58:37.562880","MEAN_MOTION":12.12054567,"ECCENTRICITY":0.1486624,"INCLINATION":82.602,"RA_OF_ASC_NODE":299.9474,"ARG_OF_PERICENTER":81.0745,"MEAN_ANOMALY":295.5123,"EPHEMERIS_TYPE":0,"CLASSIFICATION_TYPE":"U","NORAD_CAT_ID":21819,"ELEMENT_SET_NO":999,"REV_AT_EPOCH":49870,"BSTAR":0.00026319,"MEAN_MOTION_DOT":1.379e-5,"MEAN_MOTION_DDOT":0},{"OBJECT_NAME":"SL-8 R/B","OBJECT_ID":"1992-008B","EPOCH":"2026-03-26T10:33:58.388832","MEAN_MOTION":13.75969568,"ECCENTRICITY":0.0035979,"INCLINATION":82.9228,"RA_OF_ASC_NODE":255.314,"ARG_OF_PERICENTER":88.135,"MEAN_ANOMALY":300.9903,"EPHEMERIS_TYPE":0,"CLASSIFICATION_TYPE":"U","NORAD_CAT_ID":21876,"ELEMENT_SET_NO":999,"REV_AT_EPOCH":71172,"BSTAR":1.2388e-5,"MEAN_MOTION_DOT":2.8e-7,"MEAN_MOTION_DDOT":0},{"OBJECT_NAME":"SL-8 R/B","OBJECT_ID":"1992-020B","EPOCH":"2026-03-26T09:53:24.989856","MEAN_MOTION":13.7555046,"ECCENTRICITY":0.0027679,"INCLINATION":82.9309,"RA_OF_ASC_NODE":141.346,"ARG_OF_PERICENTER":249.878,"MEAN_ANOMALY":121.0421,"EPHEMERIS_TYPE":0,"CLASSIFICATION_TYPE":"U","NORAD_CAT_ID":21938,"ELEMENT_SET_NO":999,"REV_AT_EPOCH":70343,"BSTAR":1.3639e-5,"MEAN_MOTION_DOT":2.8e-7,"MEAN_MOTION_DDOT":0},{"OBJECT_NAME":"USA 81","OBJECT_ID":"1992-023A","EPOCH":"2026-03-26T11:52:03.439200","MEAN_MOTION":14.32373221,"ECCENTRICITY":0.000188,"INCLINATION":85.0051,"RA_OF_ASC_NODE":121.7436,"ARG_OF_PERICENTER":68.1838,"MEAN_ANOMALY":291.9554,"EPHEMERIS_TYPE":0,"CLASSIFICATION_TYPE":"U","NORAD_CAT_ID":21949,"ELEMENT_SET_NO":999,"REV_AT_EPOCH":9719,"BSTAR":5.3417e-5,"MEAN_MOTION_DOT":1.64e-6,"MEAN_MOTION_DDOT":0},{"OBJECT_NAME":"COSMOS 2219","OBJECT_ID":"1992-076A","EPOCH":"2026-03-26T10:15:26.001792","MEAN_MOTION":14.14091646,"ECCENTRICITY":0.0018031,"INCLINATION":71.0628,"RA_OF_ASC_NODE":343.0826,"ARG_OF_PERICENTER":182.7023,"MEAN_ANOMALY":177.4005,"EPHEMERIS_TYPE":0,"CLASSIFICATION_TYPE":"U","NORAD_CAT_ID":22219,"ELEMENT_SET_NO":999,"REV_AT_EPOCH":72074,"BSTAR":-9.5603e-5,"MEAN_MOTION_DOT":-2.29e-6,"MEAN_MOTION_DDOT":0},{"OBJECT_NAME":"SL-16 R/B","OBJECT_ID":"1992-076B","EPOCH":"2026-03-26T11:44:52.613376","MEAN_MOTION":14.16863931,"ECCENTRICITY":0.0010648,"INCLINATION":71.0002,"RA_OF_ASC_NODE":152.9882,"ARG_OF_PERICENTER":64.8921,"MEAN_ANOMALY":306.2864,"EPHEMERIS_TYPE":0,"CLASSIFICATION_TYPE":"U","NORAD_CAT_ID":22220,"ELEMENT_SET_NO":999,"REV_AT_EPOCH":72421,"BSTAR":2.9034e-5,"MEAN_MOTION_DOT":1.0e-7,"MEAN_MOTION_DDOT":0},{"OBJECT_NAME":"COSMOS 2221","OBJECT_ID":"1992-080A","EPOCH":"2026-03-26T11:45:53.458848","MEAN_MOTION":14.96267099,"ECCENTRICITY":0.0015385,"INCLINATION":82.5007,"RA_OF_ASC_NODE":262.9828,"ARG_OF_PERICENTER":132.6259,"MEAN_ANOMALY":227.6263,"EPHEMERIS_TYPE":0,"CLASSIFICATION_TYPE":"U","NORAD_CAT_ID":22236,"ELEMENT_SET_NO":999,"REV_AT_EPOCH":78330,"BSTAR":0.00019208,"MEAN_MOTION_DOT":2.199e-5,"MEAN_MOTION_DDOT":0},{"OBJECT_NAME":"SL-16 R/B","OBJECT_ID":"1992-093B","EPOCH":"2026-03-26T10:01:24.928032","MEAN_MOTION":14.15453184,"ECCENTRICITY":0.0006422,"INCLINATION":71.0233,"RA_OF_ASC_NODE":329.1521,"ARG_OF_PERICENTER":277.3538,"MEAN_ANOMALY":82.6855,"EPHEMERIS_TYPE":0,"CLASSIFICATION_TYPE":"U","NORAD_CAT_ID":22285,"ELEMENT_SET_NO":999,"REV_AT_EPOCH":71552,"BSTAR":0.00016998,"MEAN_MOTION_DOT":2.84e-6,"MEAN_MOTION_DDOT":0},{"OBJECT_NAME":"COSMOS 2228","OBJECT_ID":"1992-094A","EPOCH":"2026-03-26T11:53:17.430432","MEAN_MOTION":14.97272807,"ECCENTRICITY":0.0016725,"INCLINATION":82.5182,"RA_OF_ASC_NODE":221.2189,"ARG_OF_PERICENTER":243.1391,"MEAN_ANOMALY":116.8122,"EPHEMERIS_TYPE":0,"CLASSIFICATION_TYPE":"U","NORAD_CAT_ID":22286,"ELEMENT_SET_NO":999,"REV_AT_EPOCH":77857,"BSTAR":0.00018799,"MEAN_MOTION_DOT":2.209e-5,"MEAN_MOTION_DDOT":0},{"OBJECT_NAME":"SL-16 R/B","OBJECT_ID":"1993-016B","EPOCH":"2026-03-26T12:43:46.521120","MEAN_MOTION":14.1530544,"ECCENTRICITY":0.0012345,"INCLINATION":71.0079,"RA_OF_ASC_NODE":179.8132,"ARG_OF_PERICENTER":292.3462,"MEAN_ANOMALY":67.6352,"EPHEMERIS_TYPE":0,"CLASSIFICATION_TYPE":"U","NORAD_CAT_ID":22566,"ELEMENT_SET_NO":999,"REV_AT_EPOCH":70455,"BSTAR":-4.1751e-5,"MEAN_MOTION_DOT":-1.29e-6,"MEAN_MOTION_DDOT":0},{"OBJECT_NAME":"COSMOS 2242","OBJECT_ID":"1993-024A","EPOCH":"2026-03-26T10:01:49.539936","MEAN_MOTION":14.96617979,"ECCENTRICITY":0.0014972,"INCLINATION":82.516,"RA_OF_ASC_NODE":250.7107,"ARG_OF_PERICENTER":247.1251,"MEAN_ANOMALY":112.8391,"EPHEMERIS_TYPE":0,"CLASSIFICATION_TYPE":"U","NORAD_CAT_ID":22626,"ELEMENT_SET_NO":999,"REV_AT_EPOCH":78289,"BSTAR":0.00017814,"MEAN_MOTION_DOT":2.059e-5,"MEAN_MOTION_DDOT":0}]
